[
    {
        "Altitude(m)": 617719.7262558467,
        "Argument of Periapsis(deg)": 0.0,
        "Eccentricity": 0.0,
        "Inclination(deg)": 60.0,
        "Latitude(deg)": -41.1025191283858,
        "Longitude(deg)": 135.09457497729514,
        "Mean Anomaly(deg)": 229.09090000000003,
        "RAAN(deg)": 25.0,
        "Satellite Name": "Test1 124",
        "Satellite Number": 124,
        "Semi-Major Axis(m)": 6980739.136638005,
        "Time(s)": 0
    },
    {
        "Altitude(m)": 617911.2623393548,
        "Argument of Periapsis(deg)": 0.00010418945913296404,
        "Eccentricity": 0.0,
        "Inclination(deg)": 60.0,
        "Latitude(deg)": -41.56571185266106,
        "Longitude(deg)": 135.59897940657828,
        "Mean Anomaly(deg)": 229.71100614546188,
        "RAAN(deg)": 24.99957995086026,
        "Satellite Name": "Test1 124",
        "Satellite Number": 124,
        "Semi-Major Axis(m)": 6980739.136638005,
        "Time(s)": 10
    }
]